480P/PANSTARRS,e,13.7175,229.9768,214.2869,4.608272,0.0996315,0.24638669,43.8264,07/06.0/2024,2000,g 12.0,4.0
# From MPEC 2024-L77
481P/Lemmon-PANSTARRS,e,6.0827,93.5537,356.7038,4.678817,0.0973868,0.34343747,35.3580,07/06.0/2024,2000,g 13.5,4.0
# From MPEC 2024-JU4
482P/PANSTARRS,e,24.4844,126.0951,339.6704,3.755390,0.1354320,0.49231571,54.1685,07/06.0/2024,2000,g 13.5,4.0
# From MPEC 2024-L77
483P-A/PANSTARRS,e,14.2883,199.7601,48.1480,3.186355,0.1732858,0.22558723,149.6810,07/06.0/2024,2000,g 13.5,4.0
# From MPEC 2024-L77
483P-B/PANSTARRS,e,14.2883,199.7580,48.1991,3.186305,0.1732898,0.22561240,149.6795,07/06.0/2024,2000,g 17.0,4.0
# From MPEC 2024-DD5
484P/Spacewatch,e,14.4756,265.3980,240.7652,3.758242,0.1352779,0.43247800,178.1730,07/06.0/2024,2000,g 16.0,4.0
# From MPEC 2024-JU4
485P/Sheppard-Tholen,e,10.0162,261.6470,196.0181,6.846966,0.0550119,0.41708562,17.3977,07/06.0/2024,2000,g 13.0,4.0
# From MPC107687
1I/`Oumuamua,h,09/09.4886/2017,122.6778,24.5997,241.6845,1.199252,0.255240,2000,23.0,2.0
# From MPEC 2023-L37
2I/Borisov,h,12/08.5548/2019,44.0527,308.1480,209.1251,3.356633,2.006548,2000,11.0,4.0
